PK_LOCALIDADE;customer_address_1;customer_address_2;customer_address_3;customer_address_4;address_number;region_code;region_name;city;country;state;zip_code
c6ae2cae0930bf37b2acadef020d9b2e79d0a18c25684685cc855c445510c012;8503 Hilltop Drive;Não informado;Não informado;Não informado;10025250;2;Southern;Ooltewah;US;TN;37363
3f359ad1348521348bf1528ce13d5d0ab0317ec3bda95747d50d12f959468fbd;PO Box 2187;Não informado;Não informado;Não informado;10021911;2;Southern;Tupelo;US;MS;38803-2187
8e175c19ac80616c48a48e77ef507be62e4ded5030cab74e4c1cd7743049e734;Vagnhofda 23;Não informado;Não informado;Não informado;10013011;5;International;112 Reyjavik;AU;Não informado;Não informado
b6b4fb6e2d3b1cb3d147be434ef40cd41fd16a4a785ce37879ed6f404e00336a;217 West 3rd Street;Não informado;Não informado;Não informado;10025291;4;Central;Dover;US;OH;44622
dd85eee71d9b5ce8df6e8bb8eb319f98a85c4a2c63c1a9338c554a6e6ee8d17a;Accounting Department Service & Parts;PO Box 537940;Não informado;Não informado;10014469;4;Central;Livonia;US;MI;48153-7940
8343bc186dea8f9c865846c202c45b6d8ba5cea67287ab0aed7c0c8e604c53d0;PO Box 871 Safat;Não informado;Não informado;Não informado;10018868;5;International;Não informado;AU;Não informado;Não informado
b4b773fcfc1480e1c08585c56af3ecd8f386c178601bc0dceae0e2cad967907e;2 Calle 25-80 Zona - 15 Vista;Hermosa II Local 2;Não informado;Não informado;10026009;5;International;Não informado;AU;Não informado;Não informado
8c0039505ee364dbda0e2540b91f8280ee4a91fd07d3a4896c1d214202b5411f;Division of Western Truck Sales Inc;3530 East Washington Street;Não informado;Não informado;10014546;1;Western;Phoenix;US;AZ;85034
dbcb141c4aafe3ecabe5c87988ea14aa80dfb8a48e030937a4a82fde0e9b6457;Transversal 49 No. 102-00;Não informado;Não informado;Não informado;10017290;5;International;Bogota;UK;Não informado;Não informado
806a7ecf52dd0114f52221ca732245ee9aa9a4356daf39245b54a06f8f2045bf;6104 Young Road;Não informado;Não informado;Não informado;10025558;2;Southern;Little Rock;US;AR;72209
9e8df1888264e4c1f14912ee7ee12ebfbb6deff88a365c55cd8efb3bf9a59f08;9440 North Whitaker Road;Não informado;Não informado;Não informado;10024248;1;Western;Portland;US;OR;97217
1f9a04a5d1964d96544c980b7a4b5b1476578254ef10f6faa88202caed13cf59;PO Box 568;Não informado;Não informado;Não informado;10025038;3;Northeast;Mechanicsburg;US;PA;17055
d3b8a7043bef7753868adaab81d910c91b62f60bb59a1cb222ae0026d3bcf440;4353 W 1900 N-48;Não informado;Não informado;Não informado;10026522;4;Central;Fairmount;US;IN;46928
d5af3be217c04ec87722d654f2d0d0935fe97730757207b520aca47fe5610bf3;PO Box 6307;Não informado;Não informado;Não informado;10016549;2;Southern;Jacksonville;US;FL;32236
56256ad0241b72fb8dc4e164d74ba3461ad8b9f4938f612d8e4bb2ab5d9fb51f;PO Box 70;Não informado;Não informado;Não informado;10023778;1;Western;Hillsboro;US;OR;97123
ee44ae357f1ec507cc6546b6c476202b9179d82f79180ec4887ed5de616dcfea;8000 Haskell Avenue;Não informado;Não informado;Não informado;10000472;1;Western;Van Nuys;US;CA;91406
942a18f159f7e6412c6b4a4414989cc01b0a7ae8a48339014acb08908c105989;Dagher Plast Building 17;Baizoob Area;Não informado;Não informado;10018877;5;International;Beirut;AU;Não informado;Não informado
e236bf9a3670f9dc46dfe1f8b385b8b024d838256f5662716abb82c5bf65f4bb;5750 Ringe;Não informado;Não informado;Não informado;10015267;5;International;Sollinge Molle;UK;Não informado;Não informado
0aba1bd00ae6badcc759d3d8cdcee0c92c0eb9ba90dc26843ebb40b6a2cb3e26;1028 Saunders Lane;Não informado;Não informado;Não informado;10018665;3;Northeast;Wester Chester;US;PA;19380
56363d2f26c3e42f4f1af6b55970af6c5dd9d11b595483cc602eb0109ba974e8;Memphis PDC #19;Attention   Accounts Payable;PO Box 786;Não informado;10021459;2;Southern;Olive Branch;US;MS;38654-3703
03f0704c28b7a7bb2fb20ec660f5fd666dd1204f849c8e2b65b492bdfe31e10d;725 North Twin Oaks Valley Road;Não informado;Não informado;Não informado;10025037;1;Western;San Marcos;US;CA;92069
1a97ab46c33679ab688a8c6d4408223f167ce0c3df03dcdbce3471789914fb11;1510 Merced Street;Não informado;Não informado;Não informado;10014047;1;Western;Fresno;US;CA;93706
95288df636b0cb75754edf6cbcdef9f05117135777864f1f79c478f3bcc0450b;DUMEN SOK. No:3 D.9;GUMUSSUYU;Takism;Não informado;10023703;5;International;Istanbul;AU;Não informado;80090
190a6f0c0c2d35202fd6bf0872f06bdd20c9fc16243337415347cf009eea9952;515 Oak Point Highway;Não informado;Não informado;Não informado;10025246;0;Canada;Winnepeg;CA;MB;R2R 1V2
9252794c20625404d8d47aa691add26205f9f4656c2cac5c294ea487eba6c2b3;Central Division;PO BOX 600;Não informado;Não informado;10023715;4;Central;Plainfield;US;IN;46168-0600
52647d63fa6c1e23e5cb62bc86bc5337d17e3cfcd0e6def6fc6e2625de41d958;6590 SW Fallbrook Place;(Commercial Industrial);Não informado;Não informado;10016858;1;Western;Beaverton;US;OR;97008
79efb78956174c99269754d23ea06c4213e25b2ac50b917eebe8b75c32d69927;PO Box 3283;Não informado;Não informado;Não informado;10025571;4;Central;Des Moines;US;IA;50316-0283
45b1f4964ed32ed3e65eb0f93ef86759830237beddc8c71d8d0866d08e362712;6127 San Pedro Avenue;Não informado;Não informado;Não informado;10025040;2;Southern;San Antonio;US;TX;78216
0c6ef6650ba5768ff0b733b6882bfb614e299d21a80f69e1e8040dfb16fc6a06;7700 Counts Massie Road;Não informado;Não informado;Não informado;10023241;2;Southern;North Little Rock;US;AR;72113
8649ed2591550028baa9524ef118f89aa3806710c2346c3bf733bcd4c8766a2d;550 Du Parc Boulevard;Não informado;Não informado;Não informado;10009652;0;Canada;Valcourt;CA;QU;J0E 2L0
3b3aff10297fb935615663d510a73a3067172f6c92480163eb0218d2edae64fa;12000 Balls Ford Road;Não informado;Não informado;Não informado;10002969;3;Northeast;Manassas;US;VA;20109
cc7314451902f08e524055e34c43343927430a5e10f550f358aca23a0893b6e0;Modulo 2 Manzana 27;Parque Industrial;Não informado;Não informado;10024477;5;International;Santa Cruz;UK;Não informado;Não informado
58d10d8c4e43fd05ea20baee4297196653e7b42fe925534c47c5d993fe95a2d0;PO Box 510;Não informado;Não informado;Não informado;10012422;2;Southern;Saginaw;US;AL;35137
bcbd28d1a17174e71a25624620aa33cc035f7085c68023674e2c788d7d2d159b;Box 5516;Não informado;Não informado;Não informado;10000481;4;Central;Chicago;US;IL;60680
1942e2339400cd13af183dff7bc4997cd17565b2c881a9dbada3d654f30f87aa;5711 West 36th Street;Não informado;Não informado;Não informado;10007121;4;Central;St Louis Park;US;MN;55416
ba7a884e0c9db66d060a33d2fbbcf76644da46c77a7b7e0874f58c622e44bd22;975 Main Street;Não informado;Não informado;Não informado;10016047;2;Southern;Nashville;US;TN;37206
3f1fb1b4426df2d1eb5a6943cab765bc51d84907e97d6f00429d243642961e43;709 Rivergate Parkway;Não informado;Não informado;Não informado;10000460;2;Southern;Goodlettsville;US;TN;37072
ded507454a51a05f72a16455e154fbbd7fac2365b315aee84b3442ac370ff365;Bellsingel 2 1119NV;Não informado;Não informado;Não informado;10023511;5;International;Schiphol-Rijk;IR;Não informado;Não informado
ade19001c7e9671a3996a7dbcfdd82e5b088c9dedbca19b6d6711fd34b019cdf;3F Shinwoo Building;195-12 Poi-Dong Kangnam-KU;Não informado;Não informado;10004255;5;International;Seoul;AU;Não informado;135-260
31c18ddf6c8e5d6caa607cbde8eb85843c215636e38f003ef2703429ff4f6db8;2600 West Route 120;Não informado;Não informado;Não informado;10020915;4;Central;McHenry;US;IL;60050
aa0e3374efcd95ecfebbd1530d96d661a33079d4dcf46354ced402ebadaf13e8;861 West US Highway 30;Não informado;Não informado;Não informado;10019400;4;Central;Valparaiso;US;IN;46385
e1e4a6c09f4ea043264aebcbb0753f32ff0e706b5d3d2540ab46a5f5bad200e7;Los Angeles PDC #14;Attention   Accounts Payable;PO Box 5555;Não informado;10021203;1;Western;Costa Mesa;US;CA;92626-5555
e432828e3bf9ae2f8e65570c2b415faf670e07f79fa653c0c09935c0ef570f03;S&PD-Special Accounts Sales;PO Box 537940;Não informado;Não informado;10021986;4;Central;Livonia;US;MI;48153-7940
7233a2a0f19efe689c18b0545c36fe03fcd209c47fc15a02e735105a72d17a4f;4747 N Channel Ave;Não informado;Não informado;Não informado;10004245;1;Western;Portland;US;OR;97208-3591
abe0dce21ef89a13dfdcc24264da4df8b97a0c5498560f6b74f50510e5deb474;PO Box 129;Não informado;Não informado;Não informado;10016784;4;Central;Pocahontas;US;IA;50574
2b6c427cc85fec4894d0ee126251939cf0343562e60eecd675755e9be586b26f;1594 Nicholson Street;Não informado;Não informado;Não informado;10002220;0;Canada;Prince George;CA;BC;V2N 1V6
275fcc65e4d9f6eb253086057fac85cb0d41713b601ce72193708a54291c4ee4;730 North Central;Não informado;Não informado;Não informado;10025248;1;Western;Kent;US;WA;98032
ab85d694ee19665b780acb074ccdfe3ded50fdf09302440428bdca2d4eed536f;PO Box 13056;Não informado;Não informado;Não informado;10024260;1;Western;Spokane;US;WA;99213-3056
3bcf3bdf1a3e766e9996cd75214f8dab57f98fa421bc18dc894b693e070c2146;Av Blandin Chacao;Não informado;Não informado;Não informado;10022201;5;International;Carcas;UK;Não informado;Não informado
95f6fe1d17458c77c8a08c32f040cdf0af23b031188d85770c0050c5224209a7;10930 West 44th Avenue;Não informado;Não informado;Não informado;10021418;1;Western;Wheatridge;US;CO;80033
f619c823a2bad11f6b4dac9c618fc3aaf78c7c947c77eef2672ae0e177b168b5;395 Smitty Way;Não informado;Não informado;Não informado;10025034;1;Western;Corona;US;CA;91720
6ae43e405f04b44ca5de9d7d3bf147922ea17a3a72d0308aa3f74d7e02767f93;Rua Eng Ferreira Dia 241-243;Não informado;Não informado;Não informado;10011979;5;International;4100 Porto;UK;Não informado;Não informado
7e6786f2ca733dc19a36cdaf0317d94d58e65066649edfdf81bda462ba069037;Attention: Accounts Payable Department;PO Box 8844;Não informado;Não informado;10020909;4;Central;Canton;US;OH;44711-8844
65d2d5feec220eda249744e5e61cc1e9bdba000f91dfc6d4dd870e0cd9ad2432;Não informado;Não informado;Não informado;Não informado;10025239;5;International;Não informado;UK;Não informado;Não informado
129257c82014347caa769507d0324f2dbf2af2f13cc8cde2187f94e1523c9a37;13907 S Kostner Avenue;Não informado;Não informado;Não informado;10022252;4;Central;Crestwood;US;IL;60445-2205
121d761de2f9af4ac4af68a7124acedd865ce7279c69f2327418a40f2a4fc9cc;Attention  Accounts Payable Department;PO Box 12990;Não informado;Não informado;10023221;4;Central;Overland Park;US;KS;66282-2990
604460169b5409bd01a92f7c58e277b6ec382cb012d7d5710d6053789470bb1e;8302 Jet Pilot;Não informado;Não informado;Não informado;10024499;2;Southern;Houston;US;TX;77075
3a3a46fa30380ce84275e01d8f950b179768ff5d90efde53473617fad5c59779;PO Box 14311;Não informado;Não informado;Não informado;10015789;5;International;Jeddah;AU;Não informado;21424
77617e1e8ef8c41d7b25e3e72c4f8fd39d373a17b3094b2edc917fb5e2083c80;Attention  Accounts Payable Department;PO Box 12990;Não informado;Não informado;10010914;4;Central;Overland Park;US;KS;66282-2990
24a16b7929bb212f50fc02f6bb794c300b489e8d879d7385f4cb4950eb2aeafc;Solec 44;Não informado;Não informado;Não informado;10018371;5;International;00-394 Warsaw;UK;Não informado;Não informado
f445f84065f4d86bd934ab41bc59cd0e71e7801669d78b821ddd6e00986d86ec;513 West Waters Avenue;Não informado;Não informado;Não informado;10023509;2;Southern;Tampa;US;FL;33604
ad21f35c5123896519d931f0230f6bcb30c7c811fd48d699c75a8b8edbbd45a6;Attention  Accounts Payable Department;PO Box 12990;Não informado;Não informado;10022450;4;Central;Overland Park;US;KS;66282-2990
209e7852bbc3d0bbd1704fed2f74a029c5174ecf15274cd16f2f04ba2fef2cfb;Attention  Accounts Payable Department;PO Box 12990;Não informado;Não informado;10021977;4;Central;Overland Park;US;KS;66282-2990
c9d5a9f29023991e57302ed6e553d37cf017d40c7c0a8c0047c17761bbbe97dd;Detroit Technical Center;37002 Industrial Road;Não informado;Não informado;10022444;4;Central;Livonia;US;MI;48150
51735a3f415c9a5c2ab29fb1648d580db2fe6463ca8c6c18ab6e6b029931fa7c;Avda Bdo O'Higgins;Não informado;Não informado;Não informado;10014540;5;International;1980 Santiago;UK;Não informado;Não informado
cf0d8be005ae9f62e581bb8977d73a6b840588800cfcf5e22edc4c4e7b23baba;PO Box 447;Não informado;Não informado;Não informado;10020413;2;Southern;Okarche;US;OK;73762
2d053eea0d5726a77e3d887bba5a00e06a7d50b884ddb56c74d55c0340891a09;4200 S Morgan Street;Não informado;Não informado;Não informado;10017072;4;Central;Chicago;US;IL;60609
99a4e9891d6b1d0c3487ab2342a88477c04c021765f11e515ac9d5e7a600f8b6;2755 Kirila Boulevard;Não informado;Não informado;Não informado;10003720;3;Northeast;Hermitage;US;PA;16148
d2139f7878ce6dc52958d0b5fb2dc4dfbabba98e95a431a6ff6b6b541901c87b;Private Mail Bag 53;St Peters NSW 2044;Não informado;Não informado;10025063;5;International;Não informado;UK;Não informado;Não informado
1915d14db5b79fd8fb0fe3f4f976e86074e3729d39956714454dfd032f8c7c9f;1391 Gay Lussac;Não informado;Não informado;Não informado;10000461;0;Canada;Boucherville;CA;QU;J4B 7K1
acb37f5391b950a3c6389b9afaa1c82081d9642055b4b4c7f454601757483b1e;PO Box 12932;Não informado;Não informado;Não informado;10018603;5;International;Dubai;UK;Não informado;Não informado
1851ccf2699ad391a75a71e7c441d6d94625e3fa708c1831fe1caf58a83a7c8c;Rua Sepetiba 464;Não informado;Não informado;Não informado;10007866;5;International;Sao Paulo;UK;Não informado;5052
93893e850c4761421315b8453082b9392ceb76206a0074ae15389bcd652957c0;63 Bridge Street;Não informado;Não informado;Não informado;10027340;3;Northeast;Salem;US;MA;1970
1c94d62a5a35a6080540cc60b698c6fc86e35234aa423954233c9ac0b313bb5f;Kelapa Gading Kirana;Blok H13 Number 30-31;Não informado;Não informado;10020662;5;International;Jakarta Utara;AU;Não informado;Não informado
496a056363241d042cb91210b84f600fd57bf97d90cac57d7afea7495bdbdda2;12110 Best Place;Não informado;Não informado;Não informado;10022423;4;Central;Cincinnati;US;OH;45241
0091617c1dbdf1390ec665fe6789c5af4d1dd1105cf83d0538c263f12c05f380;812 Draper Avenue;Não informado;Não informado;Não informado;10009642;4;Central;Joliet;US;IL;60432
961da99cf59fd713e6ad853d410445d939d674a609914c86d0f60acb84ae6ec8;2900 Northwest 73rd Street;Não informado;Não informado;Não informado;10023516;2;Southern;Miami;US;FL;33147
626789f7200396e7cd8510224b89eeed100b713c1231aa9f0198a63c7b48c230;Não informado;Não informado;Não informado;Não informado;10022978;5;International;Não informado;UK;Não informado;Não informado
ade11ea05203bc764ac10edd355e116472b91080bfb7d6ca821204a924a8e619;60 Lafayette Road;Não informado;Não informado;Não informado;10023760;3;Northeast;North Hampton;US;NH;3862
6863bb6cd3ed995161e7fdd67a48cbc5ca57fdf228b32509ec11c8102434d459;8901 Montana Avenue;Não informado;Não informado;Não informado;10017314;2;Southern;El Paso;US;TX;79925
d0aaf0d248436ccdce85d2d9bc0ae5dd01fcd75a223e72150586c81915db20da;7216 Ritchie Highway;Não informado;Não informado;Não informado;10020388;3;Northeast;Glen Burnie;US;MD;21061
a4a7a767d6765864cc8e304997e209f63f4d9b6ebd4ece5e5cef0bc9845c7769;7320 West Market Street;Não informado;Não informado;Não informado;10020962;3;Northeast;Mercer;US;PA;16137
8f5352c9ebb3f75180587f2bde86b81c2759bfd83db0d9d826af2308d0bc3458;3545 South Richey Boulevard;Não informado;Não informado;Não informado;10025264;1;Western;Tuscon;US;AZ;85713
bfe4ebd3024b7f66d020e876e9622ee7a5a777c09646b22db9cfa21a72a640c0;1920 East Front Street;Não informado;Não informado;Não informado;10025036;4;Central;Kansas City;US;MO;64139-1538
20cc6b54996abd11fe4255789322ab1579cc96a789ae41f6e3fc8ef45df360f9;Av 6A Norte 25 N 43;Não informado;Não informado;Não informado;10012761;5;International;Cali;UK;Não informado;Não informado
602354032d5e30e3b890aceb37a84a70510e054e5bb17f0b2aaa250478714e59;4455 Dardanelle Drive;Não informado;Não informado;Não informado;10009697;2;Southern;Orlando;US;FL;32808
58f4193766102bcb35964e7867be6cccfd31ffbb9afb25b982ebab9210916d56;PO Drawer 40;Não informado;Não informado;Não informado;10009985;1;Western;West Jordan;US;UT;84084
1ee7436a1c950ad9419a6fe8fc4cc23720393d6826e42c63146a6301b384a94b;Box 1178;Não informado;Não informado;Não informado;10018146;0;Canada;Fort Macleod;CA;AB;T0L 0Z0
59b11e7146b4d951924831e03924c1f973fe35954c89463d32a2bcdee312f336;3564 Buford Highway;Não informado;Não informado;Não informado;10019879;2;Southern;Duluth;US;GA;30096
dec23402d916d322287c28c1b8fc044bff3a877dd06e280e9beb5e761f1ffce8;106 B David Green Road;Não informado;Não informado;Não informado;10023759;2;Southern;Birmingham;US;AL;35244
ebff6a9487657d0b5f26cf1125cb9076a9c18fceeb4b1c76fbb9af6640deaa67;2621 State Route 57;Não informado;Não informado;Não informado;10007577;3;Northeast;Stewartsville;US;NJ;8886
484f6ca6dd3fc955514223e2427d25b1942a8b41311e56e92216ef9bc05f179c;Greenville PDC #23;52 Bruce Road;Não informado;Não informado;10016542;2;Southern;Greenville;US;SC;29605
b959423a09b466fdbdf4f1fb5a1161158940cd3162436c54652f87e7f1230ff8;PO Box 105;Não informado;Não informado;Não informado;10009606;5;International;Kilsyth;UK;Não informado;3136
5768eaca57188eecad62e0d85a4742ba99665cbd960a34e449e9b17be694d2f1;1023 Kansas Avenue;Não informado;Não informado;Não informado;10006846;1;Western;Modesto;US;CA;95351
539eb135aef7c0255113da56c1dff0dc51a35473379a46514cb13ae105b3dbe9;Svarvarvagen 14;Não informado;Não informado;Não informado;10015011;5;International;SE-132 28 Saltsjo-Boo;AU;Não informado;Não informado
59300f8b4d5126d2e37f2b8536b5f3d2104c19a86faa168b7269c971e7fe8dfd;PO Box 762;Não informado;Não informado;Não informado;10017828;1;Western;Cypress;US;CA;90630
7cf5767d1c80d95558f2cc8b6a3295358726b4f3e14c7e66b7e4aac08d24e19f;Aut Reg Del Centro Valencia;A Pto Cabello Dist Naguanagua;Centro Comercial;IL Portico;10026868;5;International;Valencia;UK;Não informado;Não informado
e719268eaab753eb408f5b9cb2a1cdc5a53979fb2b76dd74ab3241a8b43859f3;3355 American Drive;Não informado;Não informado;Não informado;10009653;0;Canada;Mississauga;CA;ON;L4V 1B3
8284257f82e028cd399204fc48906325085a5e55795a21b6f56104c13ea6d808;13208 East 40 Highway;Não informado;Não informado;Não informado;10021668;4;Central;Independence;US;MO;64055
1581936e61244b15312465204a123a4e851dedaea7816856584d5a79c8451cea;Chicago PDC #22;Attention  Accounts Payable;PO Box 2060;Não informado;10014533;4;Central;Aurora;US;IL;60507-2060
1db7b5df85f2840555831cd8097d26c636daff56afaef7d3bc76e0e6d06bd832;125 Hampton Ct.;Não informado;Não informado;Não informado;10025560;2;Southern;Cramerton;US;NC;28032
f9e10c885a7ef2be9e365688b57dc39d05d8991fcba19389f5322ac4eeda7a63;PO Box 206;Não informado;Não informado;Não informado;10014779;3;Northeast;Fairview;US;NJ;7022
83d287ebb4bf90f1bf5bcc2640618f2130ca2e314bee6601b4ec46303d8b2994;Attention:  Accounts Payable;7025 Ontario Street East;Não informado;Não informado;10000469;0;Canada;Montreal;CA;QU;H1N 2B3
5f618a4dd1ed35e20ef6b402ecb69fc1ce751f5ca3696f388bd3f218cee95685;Am Schwimmbad 8;Postfach 2008;Não informado;Não informado;10020181;5;International;D 95326 Kulmbach;UK;Não informado;Não informado
c82cc91a5714e6fdad2738dcc79ae7647f5da9ab4d588f5408035f28f8d38565;2649 R W Johnson Boulevard;Não informado;Não informado;Não informado;10027381;1;Western;Tumwater;US;WA;98512
82196f7d399d87349a69d46b9f9dc061fe7b1c725fc3e3845fba20c9dc409c18;10400 Plano Road;Não informado;Não informado;Não informado;10027575;2;Southern;Dallas;US;TX;75238
d9fca5942d926f960cb4433121a74946e315a384ace8c30ee30b512884b6dbda;1287 US Highway 59 North;Não informado;Não informado;Não informado;10007564;2;Southern;Cleveland;US;TX;77327
76b763cb50c21a271cb1ac96edb983ea4656ba33fdf3ea7e9f0b2f219fa96cc6;1151 W Main;Não informado;Não informado;Não informado;10025021;4;Central;Depere;US;WI;54115
c822bdd4e1531002f766b282d9efa86b46f0d173d41d737c5978646b09df3813;1477 E Highway 356;Não informado;Não informado;Não informado;10010970;2;Southern;Irving;US;TX;75060
59802e1f043cabd9f9bef5f77e7334d7647b76f977d829ce4ac73056a51790d7;Worldwide Purchasing;1999 Center Point Parkway;Mail Code 483-550-200;Não informado;10020446;4;Central;Pontiac;US;MI;48341
5e5a5be45333ad233f1aab600768b67ffbb831decd228592e6af3cfc05539416;8300 Lane Drive;Não informado;Não informado;Não informado;10022750;4;Central;Watervliet;US;MI;49098
080075d498eefec9efb5c2fffad26c0422914ae4faf407014784e8a2367b06ae;1477 Davril Circle;Não informado;Não informado;Não informado;10009631;1;Western;Corona;US;CA;92880
084c4bd046f58894b0d300c8d9a9582fd7c073b99edf9da676521e82ecbc0b8b;2125 Whitney Avenue;Não informado;Não informado;Não informado;10009623;2;Southern;Gretna;US;LA;70056
762498beaa927f2a57ec0948d5bfc8fa4f9de13d722c1f8c5d9ed1bffa2b89e8;3356 Kermit Highway;Não informado;Não informado;Não informado;10027560;2;Southern;Odessa;US;TX;79764
5e26f88fd5d271a5311a0f21a3434e638571d819cabe0e5e1dd9ec753dba1f23;6311 North Lindbergh Boulevard;Não informado;Não informado;Não informado;10000462;4;Central;Hazelwood;US;MO;63042
eb9d980448ba6b295df2a81182f03f4e15fcf3e42b2b9c0ab8704a04e6293a72;904 Billy Mitchell Boulevard;Não informado;Não informado;Não informado;10009654;2;Southern;Brownsville;US;TX;78521
0eadce53f45c8e5ef40eaea39bda0de7531cb7364866acd8f080e8071d5c1fff;Industriestrasse 17;8910 Affoltern AA;Não informado;Não informado;10009639;5;International;Industriestrasse 17;UK;Não informado;Não informado
c5947aaeb16f6e62fbc4750243980257ba9a79a1b4d3289cb535841d245a890c;PO Box 99;Não informado;Não informado;Não informado;10002709;1;Western;Albany;US;OR;97321
257d8019b4ad20683b542b83f27646b66a336aeb6683110f18aa575abd45863c;Rue Champion;Não informado;Não informado;Não informado;10018129;5;International;ZI 1 Ducos;IR;Não informado;Não informado
5c2c728e6eae87efce128029430a95ad297de9bfb30f70739e386d48284fda4a;1051 West 7th Street;Building # 2;Não informado;Não informado;10016045;4;Central;Monroe;US;WI;53566
48633df7e2353005328ddab3ac28b19834f15ff286ea2c0840bb78217abed439;300 Ingersoll Street;PO Box 1005;Não informado;Não informado;10011724;0;Canada;Ingersoll;CA;ON;N5C 4A6
0a20b984c5b813654095663649560f67fb605a5df0a2dadf99bdbda323dcff0f;2210 Bowen Road;Não informado;Não informado;Não informado;10027572;3;Northeast;Elma;US;NY;14059
7d8a9f2111d5ae60c9411e174a31b3c96c50ce37f5106f3c3d76b40036c0feb2;3631 South Bagley Avenue;Não informado;Não informado;Não informado;10025289;1;Western;Fresno;US;CA;93725
6b49cd5bf9f48d4bd9d96d35bab291d1b82c8e82539ae325349b265ab23196d1;Attention: Rodrigo Yrarrazaval;Jose M Infante 2320 Nunoa;Não informado;Não informado;10020449;5;International;Santiago;UK;Não informado;Não informado
5e654bd6bb2c54cc4a30423a93098b2ec617da115468f881e65a888e4791bb3c;PO Box 366;Não informado;Não informado;Não informado;10025287;4;Central;Brookfield;US;WI;53008
f057df5b8e98b3b64a9be0d9ca3792926a38cf4b49dcb2b8914e04feefb3a919;1155 Mackay Street;Não informado;Não informado;Não informado;10020448;0;Canada;Regina;CA;SK;S4N 4X9
7ab8c845c39a769a69ccd0329c11cd3034c9f11ee47915a7c8f3f3798d0e8a41;Sacramento PDC #13;Attention  Accounts Payable;PO Box 15279 C;Não informado;10019109;1;Western;Sacramento;US;CA;95851-1297
81de70ccfcdc8431c079740032448eb962bf7ff64dc20f0f93aff535ee25c340;16215 118th Avenue;Não informado;Não informado;Não informado;10024034;0;Canada;Edmonton;CA;AB;T5V 1C7
76db54888e4456da481fb9caaeefbe2e3de946860916ae3dbb448c5f7bbdce0a;PO Box 10361;Não informado;Não informado;Não informado;10022167;5;International;Georgetown;AU;Não informado;Não informado
2bfc8df74a5e22976df04be8ff8d3d04e917cfb2618fbc6d6897e38859d0a3c2;Vehicle Operations;Building 540 53G/23/1;Banbury Road;Não informado;10004516;5;International;Lighthorne Warwick;UK;Não informado;CV35 ORG
a28fb8c14f660f61726ada793e654de10e2ba6550369b8d8d21345c99fd74ca3;FOB: Clackamas;Attention: Accounts Payable Department;PO Box 47700;Não informado;10021485;4;Central;Hamel;US;MN;55340-0700
c35778a84def7b4bbd6de9ee5eba453da41bcb1c08201b2362161d0747c620f0;PO Box 1010;Não informado;Não informado;Não informado;10024270;1;Western;Maxwell;US;CA;95955
18a3a1fe49c8110a3929146a737c7c71d27fb62e507bf68229d85fd91b0902ae;390 Fountain Street;Não informado;Não informado;Não informado;10025247;3;Northeast;Pittsburgh;US;PA;15238
73fe3844cda85b2b6d7897ce134a2a62042a64ac502bb5b40b08d5ee118bf3f6;Plaza Venezuela 1413-1425;Não informado;Não informado;Não informado;10009650;5;International;La Paz;UK;Não informado;Não informado
e4dbdac47d65ae58d20cad76477591a7747e8ad1acd9fdaf5a1f168e55dc9526;14312 Stenbock Way NE #F;Não informado;Não informado;Não informado;10021184;1;Western;Aurora;US;OR;97002
5c359f1c7ce3e189f68ac91f7ba01213d0a25a8ffe3b3807603a96cb0e50ae3c;RR1 Box 9;Não informado;Não informado;Não informado;10012425;4;Central;Oslo;US;MN;56744
40c664871e71286f87cab3eaff51ac1cc79f88afb6f9d9645c92855fc327912e;601 East Gowen Road;Não informado;Não informado;Não informado;10005006;1;Western;Boise;US;ID;83716
e7ea09a3d42083b7b3ae91f97e2fc9b3db9512a8ad19fa3837245dde266e0827;PO Box 1005;Não informado;Não informado;Não informado;10012235;0;Canada;Winnipeg;CA;MB;R3C 2W7
b149ed6b112e399b4b5cec9eba69c0cae74ad91b0c9b56a40bb867c304052b29;703 Waverly Street;Route 135;Não informado;Não informado;10011198;3;Northeast;Framingham;US;MA;1702
bd8bd0b02511b93bfe1bba99ccb7132f683829c2b1084fc5958499878c758bdc;1550 Aereli Avenue;Não informado;Não informado;Não informado;10000601;2;Southern;Creedmoor;US;NC;27522
54bd92827b457953504b4c6a51f7b76cd0327394f3947eebc084c85a13b151b7;1880 N Westwood;Não informado;Não informado;Não informado;10026291;4;Central;Poplar Bluff;US;MO;63901
3f51b115399c7d3d4711b21f365fe2357fe42216026ddaf323af63666a164ba0;12900 SE Capps Road;Não informado;Não informado;Não informado;10014495;1;Western;Clackamas;US;OR;97015
c6a258c83e665c7c9e42f219cd6a1cfe83ffdf3bf86a68bbbd286ac62d5ad5de;6025 Corridor Parkway;Não informado;Não informado;Não informado;10016588;2;Southern;Schertz;US;TX;78154-3214
4f2619d829032ef38046a22de4daa69b99c0f5b2e50df55494e7d8c5a68c76e5;1809 Main Street;Não informado;Não informado;Não informado;10025508;0;Canada;Moncton;CA;NB;E1E 1H5
6c991020816092974f1461534fa7d9e256900cad1723ed4668fdf3c64ff42d2a;PO Box 7647;Não informado;Não informado;Não informado;10023783;2;Southern;Pine Bluff;US;AR;71611-7647
b7ba5b754ef2e7855caac5f91d7f5e344ff603b4dad0da34a449a22e97d5e37a;1111 Finch Avenue West;Unit #22;Não informado;Não informado;10025298;0;Canada;Toronto;CA;ON;M3J 2E5
f55a50dc5743bc1518c28d6c4bd3f25d3010f71649af0b491940342d7abde7fb;PO Box 2143;Não informado;Não informado;Não informado;10009907;2;Southern;Elizabethtown;US;KY;42702-2143
76b644653dbe1a7735b02f2e18bc1a0c288c6eb13893dbfd2570583fe6fe1b4e;1942 W 11th Avenue;Não informado;Não informado;Não informado;10011398;1;Western;Eugene;US;OR;97402-3519
2dac9e30d1c2632931325b870cf16a28732961da2f70d48a6e60776e21bf17f2;Attention:  Accounts Payable;5500 East Second Street 2nd Floor;Não informado;Não informado;10024003;1;Western;Benicia;US;CA;94510-1020
b840d8847b7e373d8c2d8ee47f5c516a6d000986ce5501fb2d8d5d584a201356;6260 - Place Northcrest Suite 305;Não informado;Não informado;Não informado;10025299;0;Canada;Montreal;CA;QU;H3S 2T4
e6e7a9f92d91728db1b2818bacc4b3bfbbb1cd3f114bc8b624f0e070ff4bfb66;3248 Auburn Boulevard;Não informado;Não informado;Não informado;10009647;1;Western;Sacramento;US;CA;95821
f80e1a93bc8034f5d3783305b4baf847c8083b29707d8e52590ceeee951d9fb3;1143 W 2nd Street;Não informado;Não informado;Não informado;10025778;1;Western;Pomona;US;CA;91766
c3985be8c06561a91709829b84d6887704787489dd805e3273d79fd4e042fca4;A Scott Fetzer Company;3201 West Old Lincoln Way;Não informado;Não informado;10025251;4;Central;Wooster;US;OH;44691
649564e7a04b2342b941a040e83eaa4b01d8a9ebf176ad51821b5cb9fe5cd360;1301 East 64th Avenue;Não informado;Não informado;Não informado;10025051;1;Western;Anchorage;US;AK;99518
0eb680923419b24581b55ec5d293bf2fe73b4482d7a8b62706637e7be56e7486;PO Box 4658;Não informado;Não informado;Não informado;10012234;1;Western;Hayward;US;CA;94540
520822f702b741c43acdc95969a78675cbcfb5876c5a013e603069ae9da9f253;100 East Inyo;Não informado;Não informado;Não informado;10026843;1;Western;Tulare;US;CA;93274
28b4c64da584da7e3043f1880e975a887bf5f4669b1835a5b4f5dbc34a14d199;Attention:  Accounts Payable;300 East Norway Avenue;Não informado;Não informado;10024010;4;Central;Mitchell;US;SD;57301-7064
7e503f029ba54b8948089b6cbef7dc892c6bd40371e7b661114d1ccac6d446a0;PO Box 849;Não informado;Não informado;Não informado;10010912;2;Southern;Fort Smith;US;AR;72902-0849
09db1ef1061c3040cb7a6011f4019a2db5dddf0b7a708dd32a4e7b25ee759443;Jacksonville PDC #21;Attention  Accounts Payable;PO Box 23017;Não informado;10019150;2;Southern;Jacksonville;US;FL;32241-3017
ba7498026bbe9c62dc3e865d0cede1433c7221258388dff34028fbb58381aa25;PO Box 880 PC-112;Não informado;Não informado;Não informado;10019420;5;International;Ruwi;IR;Não informado;Não informado
69f4562cc0ef70af69a195700c9f26be56b63e08c932c01d38046209e9958706;PO box 204658;Não informado;Não informado;Não informado;10009660;2;Southern;Augusta;US;GA;30917-4658
0cc91211fb795399d66f7b325e4047e63134f3cb24ea7817cc864b650f3923bc;PO Box 10455;Não informado;Não informado;Não informado;10017576;2;Southern;New Orleans;US;LA;70181
32e1f07201c8fea3c6cd64202be2e45825dc4b2134ed69e9dcdaeeee6a6ad588;17010 S Main Street;PO Box 88;Não informado;Não informado;10010698;1;Western;Gardena;US;CA;90248
d412ec8d7e60c351b78c6d5ba1b75ea68ed5b8b0630a1bbb2ada1125b852b9ab;S Gravendam Seweg 53;Não informado;Não informado;Não informado;10014238;5;International;2215 TC Voorhout;IR;Não informado;Não informado
85ee109c761776a777f9d82e61267e7876b0136a3624f3f12e243e61bbd534e9;5745 N Tryon Street;Não informado;Não informado;Não informado;10000475;2;Southern;Charlotte;US;NC;28213
b2efa502ec4943ab242e6a4ffeed6c4ba42bd4820c4ca4d1b6a2440a56557b17;PO Box 26;Não informado;Não informado;Não informado;10026336;2;Southern;Columbia;US;SC;29202
e62681dc2a02810dd741e5891320ed1314e14638357875f9da9319bf8918ce65;4532 Enterprise Drive;Não informado;Não informado;Não informado;10025758;2;Southern;Oklahoma City;US;OK;73128
f08d0569dcbde9f149fd255d9bf5113348d3d07d609dd33244798d2752f10355;Não informado;Não informado;Não informado;Não informado;10020193;5;International;Não informado;UK;Não informado;Não informado
c923c4f84928d5e3cf24609c107ee91ec261fa5a9920f9bea8460dcd07d41d8f;Order Processing Group;25140 Lahser Road Suite 282;Não informado;Não informado;10025552;4;Central;Southfield;US;MI;48034
15f8a5762e52c03201dd6f6c594d6a8e90d1f2388099a5b15488db7bf18d3c2f;Parts Division;140-2 Kye-Dong;Chongro-Ku;Não informado;10025242;5;International;Seoul;AU;Não informado;110-793
7651e1e91dc7cf8a86ecff5ce3221510a89db13ddd59b204f8f43893eb9fd2d5;PO Box 461090;Não informado;Não informado;Não informado;10026078;4;Central;Bedford;US;OH;44146
8153414a43cfd399cf8d162b8b7eea1b7eb765af0525420ccb061313339c504f;12805 SW 77th Place;Não informado;Não informado;Não informado;10018628;1;Western;Tigard;US;OR;97223
aa8698e7da1d8cf0564aa58a2265b0f446181089bbbb68a2dbb8a5f876092e18;Al Thalia Street;PO Box 11605;Não informado;Não informado;10000471;5;International;Jeddah;AU;Não informado;11443
b9fdde4d1da59210a74baf8df2ca8a00fa08068a31f4af7ffa01020596b7667c;18412 96 Avenue;Não informado;Não informado;Não informado;10023022;0;Canada;Surrey;CA;BC;V4N 3P8
41f1f95c8704db39055fef2a82c4e44ad860addbefaf6623f0d00fafb3df1fad;Não informado;Não informado;Não informado;Não informado;Não informado;5;International;Não informado;Não informado;Não informado;Não informado
3a501de60ec27747c7571a07976352492a9dd145de8401bd4ed2aff4c5321b9f;170 Industrial Boulevard;Não informado;Não informado;Não informado;10010884;0;Canada;Boucherville;CA;QU;J4B 2X3
69119b186713910fd4f20a99c567221b2d49c8aace66e2bcc3e656924a041256;5100 Highway 93 South;Não informado;Não informado;Não informado;10026055;4;Central;Eau Claire;US;WI;54701
96a45397a96879fa9f0f5c3f172209af1d5b771551c3dff5106645d634584c49;Rinconada De La Floresta 1137;Rinconada Del Bosque CP;Não informado;Não informado;10014043;5;International;Guadalajara Jal Mexico;IR;Não informado;44530
b9f44f8f6073aac7c8d11e6f0221615d291bb6c25313118f82b2599eb94f17d4;PO Box 80509;Não informado;Não informado;Não informado;10025061;4;Central;Canton;US;OH;44708
59c6f58f26518a5067b4f76813a1abe3fcb791f50a3be55f5cf2b6eb026a98b5;4567 Federal Boulevard;Não informado;Não informado;Não informado;10025238;1;Western;San Diego;US;CA;92102
0c64f6b8c5b2103e7e8a5a6aa6f75dd5c3509d3726b47635045fe9cc933bf512;850 Commerce Street;Não informado;Não informado;Não informado;10025769;1;Western;Redding;US;CA;96002
c4cf5478f9f0db2e48bc7a88d247345231a3c4f71fd7bf1ae20675d51ec6382f;EDIF N 4141;Apdo Postal 642 Zona 9-A;Não informado;Não informado;10018363;5;International;Panama Rep De Panama;IR;Não informado;Não informado
bf617dd44b65ddcb6129e0a81874e124edf0f38b26706f6ee16aae118899b968;317 North Main Street;Não informado;Não informado;Não informado;10010969;4;Central;Elkhart;US;IN;46516
ebc28aa01d480bd7335ce14a281dd915916110c2f23665235fff63ccec483b41;Advance Auto Parts;Attn  Merchandise Accts. Payable;P.O. Box 2710;Não informado;10017638;3;Northeast;Roanoke;US;VA;24001
ae91f6360ed54d147d8c4ac494c00af7ee7b3fa84df9b8a56f0736bec1be2b7c;4410 Highway 80 East;Não informado;Não informado;Não informado;10006862;2;Southern;Pearl;US;MS;39209
adc82550256e65d4901505b75f7dfe3e1fdfa373912099da72b6189703cd2706;Weser Ems Strasse 2-4;Não informado;Não informado;Não informado;10026081;5;International;Bremen;UK;Não informado;D-28390
0d39211b2ed9f79bb51c3a13ad3e3a172dce29ffef8f4f361cded7e766294d71;AV 6 DE DICIEMBRE;N47225 Y Samuel Fritz;Não informado;Não informado;10006836;5;International;Quito;UK;Não informado;Não informado
b65639e0e535153e2bb349d6b58745fe18352137911585dabb23d784feed585a;16241 South Us 27;Não informado;Não informado;Não informado;10020390;4;Central;Lansing;US;MI;48906
5f3802ebedcce3737f127c5dfc1247d092d518b8fb7e9d16eb859d9d49adb5ad;32722 Highway 45;Não informado;Não informado;Não informado;10011521;2;Southern;Okolona;US;MS;38860
85d9a5e8f715efb4ab6c020696ce84036e7cfbcd029744a8e941fbed252f308a;PO Box 30659;Não informado;Não informado;Não informado;10023275;1;Western;Portland;US;OR;97294
4867bc977c62a9f52bf52fd672acbfe1f28f0e8f4817caf7731313f7d0efb705;301 Iddings Street;PO Box 865;Não informado;Não informado;10008638;3;Northeast;Milesburg;US;PA;16853
0b8f7bdd10195cdb536ef1a3efdbe9d6bd26b15c27f7a76ecfb3aadd28258441;Cnr Avalon Drv & Tasman Road;PO Box 20077;Não informado;Não informado;10021911;2;Southern;Te Rapa Hamilton;US;MS;Não informado
742cd397d78398e8ebe4c0450e049970b803a964a679a983dbf5397230e21fa3;1665 Shawson Drive;Não informado;Não informado;Não informado;10022240;0;Canada;Mississauga;CA;ON;L4W 1T7
224184a5b311111756667d2c86709400b4fa8562332f8d41374c5f7e673908f4;480 Gordon Baker Road;Não informado;Não informado;Não informado;10021204;0;Canada;Toronto;CA;ON;M2H 3B4
f932ff3d93f68fa97ec637413129debfba6cde7965e1edbf7699d1c7ac254a3a;Paseo Colon Calles 34-36;Não informado;Não informado;Não informado;10005043;5;International;San Jose;UK;Não informado;Não informado
3530b465dd84be1c570d1dbbadff027ab73355e199d3d60ea639a0a642db9eec;Attention  Accounts Payable Department;PO Box 12990;Não informado;Não informado;10016807;4;Central;Overland Park;US;KS;66282-2990
06b1e97aa222f049421d6d613d358633a95778e60f23ba18c486925d3b8bfefa;PO Box 220;Não informado;Não informado;Não informado;10026348;2;Southern;Mebane;US;NC;27302
6f6575422f2307bf879829446513ad537b447f330d82e38625f2e8f5bd17323d;7225 NW 25th Street;Não informado;Não informado;Não informado;10006037;2;Southern;Miami;US;FL;33122
5a4e6721e87fd5c3dbc108f1970bc00d103c76364d51b56d590b9e736ac78d76;19745 Meekland Avenue;Não informado;Não informado;Não informado;10025284;1;Western;Hayward;US;CA;94541
5bf7d15f9987fb5ede2af6c40988029c8c0391be5ea2fba6a5edd8615863dd16;Não informado;Não informado;Não informado;Não informado;10009633;5;International;Não informado;UK;Não informado;Não informado
5b950f27bc077a5a0da0dd6d176c5180899df4c5fd817235bcf446a5822a1674;7392 Count Circle;Não informado;Não informado;Não informado;10000455;1;Western;Huntington Beach;US;CA;92647
460cd55f20d6596d15978a599a4a1c3d2e6ee5a79fff5660c5f4122e30f5446d;PO BOX 8808;C/O APSS;Dept. 551;Não informado;10019664;4;Central;MOLINE;US;IL;61266-8808
3f31deef1b7df26ff10f0ee8459b51549bf58b4c7d74bb2e5b88663d9312e78f;PO Box 4405;Não informado;Não informado;Não informado;10025252;4;Central;Elkhart;US;IN;46514
18b05129a62a9defe7eba1c577829ad7d1b3dc5ff189b956c7a35cb90915f70b;Hiekkakiventie 7;Não informado;Não informado;Não informado;10007591;5;International;FIN 00710;UK;Não informado;710
ffff1257fc0418f3261dfe7b11cbe941e21388e08caf2d1cee548ef3a2595cd0;PO Box 68;Não informado;Não informado;Não informado;10027053;4;Central;Raleigh;US;IL;62977-0068
3ba7b5fd7b4c2c6941d8c50f4cfdc7b72c28eb22ee4466c8225aede36f176cdb;PO Box 3265;Não informado;Não informado;Não informado;10000474;4;Central;Des Moines;US;IA;50316
1e57a2843c508f0b804b46c1bb066978e1a9223d97a3d4b133bc00b21bdc54ce;4103 Holiday Drive;Não informado;Não informado;Não informado;10009643;4;Central;Flint;US;MI;48507
e6b7a0aa5541c86e1ae649cfa06c4f1251315a3ae467df62d7f87a9e0bc903f1;4260 North Nevada Avenue;Não informado;Não informado;Não informado;10025305;1;Western;Colorado Springs;US;CO;80907
920fa2073837f77aeeb5dbb9da765d327e22c3aba41e270666812f9ac71cbb90;845 Third Street;Não informado;Não informado;Não informado;10022431;3;Northeast;Vinton;US;VA;24179
e88fc50a5535c96ae59f3b9a0ae620774c0e9de2d8ec973569851f404e7f446b;PO Box 24217;Não informado;Não informado;Não informado;10022678;3;Northeast;Richmond;US;VA;23224
a8de09a4b005344749dd9d0185e96e0e858961e7bfb74f11434ddd0df88c46e6;Americas Body Company;PO Box 46539;Não informado;Não informado;10024541;4;Central;Bedford;US;OH;44146
45e52550b5f98dd4818dc0ab58e3cd14f709c89576a0bd18b5a7c237dc0b87be;2402 West Valley Highway North;Não informado;Não informado;Não informado;10025025;1;Western;Auburn;US;WA;98001
2a7c8797d8e55de7025ed77fa381638076a9ae4cca12e4e743d6071f7ec330ac;10901 Macleod Trail South;Não informado;Não informado;Não informado;10019913;0;Canada;Calgary;CA;AB;T2J 4L3
e3924123e35db3603c99f567a913c6f1fca0c2b3905d58cad4a673ddc53aa746;2401 East 31st Street;PO Box 72638;Não informado;Não informado;10025285;2;Southern;Chattanooga;US;TN;37407
e634b973f529c64adfe9079c3f6094a309776f5e93ef50eaa6c4ab67dfaede7f;PO Box 790;Não informado;Não informado;Não informado;10018580;2;Southern;Beaumont;US;TX;77704
98261577003e6eac87831cd14240d6d91122ebdc18cfe13c8ee9c239f4954908;Unit 403 - 17665 - 66A Avenue;Não informado;Não informado;Não informado;10026268;0;Canada;Surrey;CA;BC;V3S-2A7
3694414962a502faf73314a422a4f6b4cae61fcf1da3eb4bf52a4394d905b997;2301 Central Parkway;Não informado;Não informado;Não informado;10026062;2;Southern;Houston;US;TX;77092
11918cc2d7570971771efaf4bd06399c5c20ab5ef6aa9bd051a5478b728774e1;3343 Shelby Street;Não informado;Não informado;Não informado;10013472;4;Central;Indianapolis;US;IN;46227
30d587d6239d4ef45567b2a67ad6615fa453ba71b64fabbdbc1f3cb2ffbfb2ab;21533 Mound Road;Não informado;Não informado;Não informado;10022730;4;Central;Warren;US;MI;48091-2991
b069b65a3844ce7625e2cb4f7e77a631d476380c352294ee3dd87a641da422a9;PO Box 2484;Não informado;Não informado;Não informado;10003795;2;Southern;Baton Rouge;US;LA;70815
2a2499e1ac45ec014475c73cef0db5b07aa2b08e16b08c5f84ab71b7659c8695;#9 - 19257 Enterprise Way;Não informado;Não informado;Não informado;10021158;0;Canada;Surrey;CA;BC;V35-6J8
bebbb5f2e43576c53b36351b792ab94cc3a4e8de0942a54f815844424c5ec39c;1935 S Campbell;Não informado;Não informado;Não informado;10014264;4;Central;Springfield;US;MO;65898
4fd39ef011da6976ab5159aab6ebf292aaba3d8049f9a3c481dbb6a5c5ee2b28;PO Box 460;Não informado;Não informado;Não informado;10021231;4;Central;Middlebury;US;IN;46540
7311efc5ccf81edaff2e42842b7fdb03bc33c58dad2b898506c7a91fb5f7bc7d;Unicity Distribution Systems;1445 Church Avenue;Não informado;Não informado;10016609;0;Canada;Winnepeg;CA;MB;R2X 2X9
b84f05d9577657c6ef5bc8f7ddc5a1148eaa58ac0a030d824591174d5c211e87;226 North 13th;Não informado;Não informado;Não informado;10025033;1;Western;Billings;US;MT;59101
15597ee0eb9303a7b8676c7a02a79b66bc40c4a1f073218ab0f40c0e70b9e35b;2610 NW 10th Street;Não informado;Não informado;Não informado;10022764;2;Southern;Ocala;US;FL;34475
b8bae3f2e53b2f42340ffe7dc4f7c1807ea6fac993c982772711366c938e23e2;9605 56th Avenue;Não informado;Não informado;Não informado;10010887;0;Canada;Edmonton;CA;AB;T6E 0B2
11c853d9c87e873dd7291a73d9f02772ffd988337aa669ae9b80511adfc26c94;Global Motorsport Parts Inc;PO Box 1179;Não informado;Não informado;10009356;4;Central;Cape Girardeau;US;MO;63702
212e06bb0e33be34f213abb43b3e39fca7e5fc81f7d5aa3fb15d962659b32679;23308 Airpark Drive;Não informado;Não informado;Não informado;10008134;3;Northeast;Petersburg;US;VA;23803
efd36f2a5e2d529c71c9f73367d571cd3eabf083a4db85a01511936c88a1023a;Attention:  Accounts Payable;686 South Adams;Não informado;Não informado;10015495;4;Central;Kansas City;US;KS;66105
10b70aea4f8bde1c190eba54d5653e9f76ba120d3347310b0cabf232893c552d;4760 NW 165th Street;Não informado;Não informado;Não informado;10002765;2;Southern;Hialeah;US;FL;33014
37bf66ffeb02d594ace74c7171a897d95530ec1654afb866aa8903de5a9e5b75;3248 Auburn Boulevard;Não informado;Não informado;Não informado;10019900;1;Western;Sacramento;US;CA;95821
c9914bb2f44bcb0a5534cc6dafcb7125f56655e65581d32396c82603db92ebdf;PO Box 549;Não informado;Não informado;Não informado;10020931;1;Western;Bozeman;US;MT;59715
0020b0dd798abdd4178b5429eab2e6d0101bc059477f8527a7d595d8dfbbaf42;97 Banawe Street;Não informado;Não informado;Não informado;10026521;5;International;Quezon City;IR;Não informado;1114
f48d3dfa9f9b645fea3b6e9b3ff4bbd442708ce7b7378ef7847761d07dec19fe;PO Box 900;Não informado;Não informado;Não informado;10022732;2;Southern;Lake Hamilton;US;FL;33851
217c65ffcbb43bdb0fcda8a4f042e1bd7b0e074792580129275b4c9a61be0e85;3248 Auburn Boulevard;Não informado;Não informado;Não informado;10015793;1;Western;Sacramento;US;CA;95821
3e20daeca495b71fa3d6dae5525c3ba5c1f167442166c3ce170660eec65662b1;Spicer Clark - Hurth Off Highway Div;1293 Glenway Drive;Não informado;Não informado;10002244;2;Southern;Statesville;US;NC;28625
6e5a7565b4e1725bdca214bc9b53d99e85c209d75e65b259b249067f8a3c6ecd;PO Box 266;Não informado;Não informado;Não informado;10002489;2;Southern;Villa Rica;US;GA;30180-0266
7d9bfac0977fb07e947ca4e2d4704bea7c55e981be1d5cc132a435968662e574;4700 Rangeline Road;Não informado;Não informado;Não informado;10016548;2;Southern;Mobile;US;AL;36619
d23a4a0e44798c5db9bb9404836117dd2407e0ce351e91daec7dcfa3a6847bab;PO Box 22249;Não informado;Não informado;Não informado;10026581;2;Southern;Savannah;US;GA;31403
85e6b959d71ead5de61510bbad6a10422289da1c52dcef3c89412352967e0556;PO Box 409;Não informado;Não informado;Não informado;10019682;4;Central;Lennox;US;SD;57039
5c1cafc67b299b26cf6b5500f67a6b2848ca816bc90f5fdd8cd77fab6f1ffdc0;3204 W Mill Road;Não informado;Não informado;Não informado;10027050;4;Central;Milwaukie;US;WI;53209
ce172d6572772f7fbebb87a3ee14e7126c18016f8ce683d5d8f1c3b5dfad519c;Landstrasse 18;Não informado;Não informado;Não informado;10022746;5;International;A 5102 Anthering;UK;Não informado;Não informado
b5dd5e6366dc54bc9b13e7baee2c5c0cc2d5ed50b3bd4a4652adff6971b21883;PO Box 57;Não informado;Não informado;Não informado;10024006;4;Central;Columbiana;US;OH;44408
8c9e777c6ec686f7b88c547c914a62254f9008c8a045107da1c3c4fd8b77f074;3340 A Sunrise Boulevard;Não informado;Não informado;Não informado;10022456;1;Western;Rancho Cordova;US;CA;95742-7316
71ff0ac60f572e7eb870cd39ce4f67ff17308db2f701e3c0bb948d1f224f15a6;PO Box 3382;Attention  Accounts Payable;Não informado;Não informado;10021139;4;Central;Livonia;US;MI;48151
9972250bb13a2d6414c7393700f7cdf0aa841140222fc087465e60b3def382e1;1101 N College Avenue;Não informado;Não informado;Não informado;10019388;1;Western;Ft Collins;US;CO;80524
e40822fb98b2feb205f0fcbfd4ee540ef9e187db1f97235973ac3188f9e9e7fb;128 So. 2nd Avenue;Não informado;Não informado;Não informado;10018885;1;Western;Pocatello;US;ID;83201
77075195e26b583c9b2bc8710cebb08ffd7a1cba1833a1f0e2c72be92e5ebfb8;RR 2 BOX 9;Não informado;Não informado;Não informado;10024999;4;Central;Andover;US;SD;57422-8811
1ff8ff1c14206f85c0d9b3f820e969a73de715ad110534b3455186843c8504fe;Limited Reg Number 28388;40 Devil's Tower Road;PO Box 176;Não informado;10007309;5;International;Não informado;UK;Não informado;Não informado
a459cfec2a444abd70f22bfcc15c45faaad97bc4a47b0adf073c0085f58ccd54;17 Perry Road;Não informado;Não informado;Não informado;10018623;2;Southern;Laurel;US;MS;39440
d1ded8e29e6fb6cf88eda33789f56a78269353ad16a3427a19b4b9cc6c8b2caf;3056 Eastern Avenue SE;Não informado;Não informado;Não informado;10014803;4;Central;Grand Rapids;US;MI;49508
3d2b9e643c36d0c3d1700dc5686cf9739eef712a52e28e864b090ff85a84558a;13270 SE Pheasant Court;Não informado;Não informado;Não informado;10025049;1;Western;Milwaukie;US;OR;97222
9b052733684fba025330b514cca2f32bd9611b84de07edef5b64aa7a106af379;3601 Amarillo Boulevard East;Não informado;Não informado;Não informado;10007355;2;Southern;Amarillo;US;TX;79107
baa5e94be04d3e49d106482136cf15a6a4d4b0f663bfac1fea241ecbcf0f0a44;Attention: Accounts Payable;4900 Alliance Gateway Freeway;Não informado;Não informado;10023538;2;Southern;Fort Worth;US;TX;76177
9d6469a162d43d2213f99675829eaff9ac045e0d5e0fd4e94e2d99ba7cc65392;299 East Country Road 300 South;Não informado;Não informado;Não informado;10019942;4;Central;New Castle;US;IN;47362
6da8c67001a357cb41424c68a0cac4cd7fb65afe39778eea3d619223f456162a;Attention:  Accounts Payable;1624 North 71st East Avenue;Não informado;Não informado;10023447;2;Southern;Tulsa;US;OK;74115
9380d4f6e533eaa4f830e381dcbff56422723cccc381be3ad52ca2aca1d952e4;9950 Jeronimo Road;Attention: Sohaila;Não informado;Não informado;10024022;1;Western;Irvine;US;CA;92618
841bd7475f0c78110b5562e9a558a567634801369998814bb558083b64268dd4;815 Hellam Street;Não informado;Não informado;Não informado;10021470;3;Northeast;Wrightsville;US;PA;17368
be6a033989a65f0cfdd8f297746dbb84b5595c9017527721433643ed3cf1700b;7221 Highway 64;Não informado;Não informado;Não informado;10025249;2;Southern;Memphis;US;TN;38133
6ff2aec2cab0fd6113470a7f0d082145b66e4f1568965b88bee3960a888f07f1;100 Gasoline Alley  Suite A;Não informado;Não informado;Não informado;10021415;4;Central;Indianopolis;US;IN;46222
284e5df406738e05366b8fe95f9c7e320e50d0f1ef453d0b53a31cdf7f90530f;Não informado;Não informado;Não informado;Não informado;10002501;5;International;Não informado;UK;Não informado;Não informado
191855d91672f51f49cf0b89bc7c000f5b56ebf7ebe09e27181e80d4d8cca94c;1101A Potomac Avenue;Não informado;Não informado;Não informado;10006848;3;Northeast;Fredericksburg;US;VA;22405
e54ae79cf86a407d652e59d2882dafee8a6715d23914dccab0a246fa69c89e79;PO Box 2017;Não informado;Não informado;Não informado;10024550;4;Central;Appleton;US;WI;54913
305b93199140f3cf71de9b4ebd0c230305eaf90038bae36af271e3fec6e48096;208 W Main;Não informado;Não informado;Não informado;10010717;4;Central;Waterville;US;KS;66548
2131e4ec11bcd8847658b5dac7100ad4ae0216c8cb35ba216834d9f1232f64c5;PO Box 840;Não informado;Não informado;Não informado;10000458;4;Central;Saginaw;US;MI;48606
108a390584faedf67f638ae9fd5307bacd4bb39094f51cbc4d4eadac1f60ce30;Southern Maryland 4 X 4 Inc;2588 Old Washington Road;Não informado;Não informado;10025771;3;Northeast;Waldorf;US;MD;20601
2b71240d60d54c951a8787460fbd6679fe8aa4b2f3904a994952e91306f10899;13296 County Highway 00;Não informado;Não informado;Não informado;10010974;4;Central;Chippewa Falls;US;WI;54729
80d311f7c1e8c7981fb4570e0f6b147ef2613c02ff7036f17dace953ccc5920b;801 West Artesia Boulevard;Não informado;Não informado;Não informado;10025919;1;Western;Compton;US;CA;90220
f3b82fc1c978b01d3562d6faaae7d59bdb16eb5601ec8c32abfa25d1c1693c0f;308 53 Avenue SE;Não informado;Não informado;Não informado;10026006;0;Canada;Calgary;CA;AB;T2H 0N3
176d3dd16d9a44636d6eb12d9435809e1b977e88ef4fde54909d360f7c7612a0;PO Box 174;Não informado;Não informado;Não informado;10024725;2;Southern;Jasper;US;TX;75951
0f3f0a438669eb18d07fc08e22d9bb4f8b961f67d6e8963b3741921f26c99ef6;1201 Sycamore Avenue;Não informado;Não informado;Não informado;10026839;2;Southern;Greenwood;US;MS;38930
d11fc04d10257aa56a60ac1f6fddc86f9771c33e8816ee29d8ff19d7d1ebb313;9555 Airline Highway;Não informado;Não informado;Não informado;10004302;2;Southern;Baton Rouge;US;LA;70815
43aa8af85b4341ff337334f280b547b50dcbd7e27f1ef22915a0fc7152d0e252;Não informado;Não informado;Não informado;Não informado;10027119;5;International;Não informado;UK;Não informado;Não informado
daea64c9820ca4cc8b090992bb0559394c36e143d9a5daae7a29cf4a235a5583;Av Eusebio Ayala 3321;Não informado;Não informado;Não informado;10023780;5;International;Asuncion;UK;Não informado;33126-1214
ba8fd53095de0a296dbc0dc78f5a5e6359cdbd74be0ec653e8814e3d6b98cdab;PO Box 249;Não informado;Não informado;Não informado;10023793;2;Southern;Holden;US;LA;70744
5ef735098387a1b4b9b3ed1f49a07f45fb27c37aaf34aba6de07d7b50ae96672;PO Box 5222;Não informado;Não informado;Não informado;10013238;4;Central;Janesville;US;WI;53547-5222
9716b60d33984beb43c2e677a10fdb2d6e8bd4336b73453ee7a098d977813a9d;PO Box 20505;Não informado;Não informado;Não informado;10004256;1;Western;Portland;US;OR;97294
e16d39c2c645502a942359441cdfdeb97230423eed3556f5e22b0d4e0903db98;1275 North 6 Mile Road;Não informado;Não informado;Não informado;10026355;1;Western;Casper;US;WY;82604
3c59573e17b22c3c375c5b9342fed8da59a2a19db3471c1aff12cf78ce6db901;PO Box 250825;Não informado;Não informado;Não informado;10013232;4;Central;Milwaukie;US;WI;53225
ee946f1f1a35b252e3c0d7cba1dfe05774636bbe65aca51e0e14fc4feae2da92;8120 E Doyle Springs Road;Não informado;Não informado;Não informado;10000478;2;Southern;Little Rock;US;AR;72209
70f82fd8f5acbfee72273f04ce23a17b8965f9bc12cfcd7a3b8d5340047bcb2d;5300 Glenmont Drive;Não informado;Não informado;Não informado;10025814;2;Southern;Houston;US;TX;77081
285eb9958ff96ff0a97de3d66f6274ec6e5d02bd7f9e95a6b060b7ba995636b6;Central Accounting Service;PO Box 2900;Não informado;Não informado;10025237;0;Canada;Oakville;CA;ON;L6J 5E6
9c6616f184573730e641da969f93493d325f78f990d48efa79c611a46446d685;PO Box 899;Não informado;Não informado;Não informado;10023244;2;Southern;Cleveland;US;MS;38732-0899
db009a3c3d6bf85d1d3943c71025e2dee922e8b07b7f8c6ad50ba360f507dbcb;Não informado;Não informado;Não informado;Não informado;10020907;5;International;Não informado;UK;Não informado;Não informado
8f18def75876a6f11ca710d1d729a3529214c991b1db050dba2bbb4d21fba089;Kirchstrasse 39;FL 9490 Vaduz;Não informado;Não informado;10025288;5;International;Furstentum;AU;Não informado;Não informado
1cc2193c9723b1677461b561c56226773b2d3053eabb5e222d710887470acf7b;3248 Auburn Boulevard;Não informado;Não informado;Não informado;10023489;1;Western;Sacramento;US;CA;95821
48f18cfc9547e222d6b72269ccabe62450608be110d3aceb95af62884f87cb51;600 South Brooks Avenue;Não informado;Não informado;Não informado;10023023;4;Central;Thief River Falls;US;MN;56701
8f01b3e324ace2e1abda2685b530f4f99a27cacf44905aa7b94fb13ab5fc0ef2;Attention Accounts Payable Department;PO Box 12990;Não informado;Não informado;10016334;4;Central;Overland Park;US;KS;66282-2990
fdef52fd7707b69b87e1521edf21ff17f0a01c9dd8b52ed69e4d046d7eb7114a;Attention: Accounts Payable Department;PO Box 8844;Não informado;Não informado;10014810;4;Central;Canton;US;OH;44711-8844
e2f1bfa563326da805d243d7172b4522f458f82071f4de2efd3dfcf67b396f18;PO Box 7005;Não informado;Não informado;Não informado;10015824;4;Central;South Bend;US;IN;46634-7005
6b67f7d6195aa9d13ce8b2cebe0d94023a246b934a8b98ba05b9e91a523e0e60;Attention: Anna Markert;3111 W Allegheny Avenue;Não informado;Não informado;10015783;3;Northeast;Philadelphia;US;PA;19132
80fb71b92128b72fcfc7990d901e828e79ee7664d2196450f9a23d1dae8a9fd1;2106 South Riverside Road;Não informado;Não informado;Não informado;10007566;4;Central;St Joseph;US;MO;64507-9799
4531e4d15cc101d735f38cf8619899759b74807538319c6ed2ec35f2acafb83f;150-3 Chilkei-Dong;Não informado;Não informado;Não informado;10025052;5;International;Songtan SI;AU;Não informado;459-050
67c4bb8b39fc6c88ecb4c935da9a6ae75512f87f34c5aa1df8c34dd02ad59660;124 Hegenberger Loop;Não informado;Não informado;Não informado;10024262;1;Western;Oakland;US;CA;94621
ed1280cfd77b86ed693a65a26e9afae6e74b9d713b720ae6a18fec601d6ad88a;PO Box 667;Não informado;Não informado;Não informado;10025791;1;Western;Prineville;US;OR;97754
979270c425f90798bfb2e817356064ea2eab4d043f63ba42a99472ba00fbf73e;334 North Hall Street;Não informado;Não informado;Não informado;10026299;2;Southern;Dallas;US;TX;75226
b626b122cb82998628d35754b329d7b4c7c46db7370df9c3244a73ba4ba0111b;PO Box 3445;Não informado;Não informado;Não informado;10020639;2;Southern;Tulsa;US;OK;74101-3445
f7e3dc33a1647068bbbbc80102b7f8e99ed3e24cc259e07e25db9e09af6c283d;5821 Hampton Avenue;Não informado;Não informado;Não informado;10013765;4;Central;St Louis;US;MO;63109
00a22b07380c8296644fe86a5963dc245d1a2fd95d70d07520e5cb69819cb40e;167 East Kalamazoo Avenue;Não informado;Não informado;Não informado;10009676;4;Central;Kalamazoo;US;MI;49007
ec47f12f256bbff50d9b687dbbbf335caa846a835c671f65874e1b32e81efe18;c/o Tom's Bronco Parts;2294 Sage Road;Não informado;Não informado;10023212;1;Western;Medford;US;OR;97501
93a8e208cdd567089d9a25207104230cbd19fbba4afe8de334a19110377a577f;2916-21st Street Northeast;Não informado;Não informado;Não informado;10014471;0;Canada;Calgary;CA;AB;T2E 6Z2
654e65aa629564209ff732c02be489699994c1a9a66c6f1b4b8f3e9ba3f50b5d;6029 Mechanicsville Pike;Não informado;Não informado;Não informado;10019105;3;Northeast;Mechanicsville;US;VA;23111
8f11e76b1b58187b6eb0d086b6b1bbe24e397a100920f56ea9b8a8af4b7b6d9b;1-16-33 Kotsubo Zushi;Não informado;Não informado;Não informado;10024016;5;International;Kanagawa;AU;Não informado;249-0008
d9f429b89f8ee48da0c94306bccf784ffdde7d9f1d8e2ba3e58529b86c8c51c9;500 Airport Drive;Não informado;Não informado;Não informado;10019909;4;Central;Shawano;US;WI;54166
52f7cb0b18078624430b18cb982422ec53e533e439782ba082bcec9789812485;Attention: Linda;100 Business Center Drive;Não informado;Não informado;10022470;2;Southern;Ormond Beach;US;FL;32176
b1ebff102539805bd7e185cbf449a2e65f13166cc25a64224b54d9e1761d9bdb;9111 41 Avenue;Não informado;Não informado;Não informado;10027082;0;Canada;Edmonton;CA;AB;T6E 5V2
a79eafd75ef01ec563d84884865762f2a7127aa9ede77a962b169c1eb9a39d70;Central Accounting Service;PO Box 6005;Não informado;Não informado;10026606;4;Central;Dearborn;US;MI;48121
dde4db84adf9ae0efc2debc23b8dd314bb74e100c0a6a6c1452bc36a09731524;209 Sanford Road (Route 109);Não informado;Não informado;Não informado;10008602;3;Northeast;Wells;US;ME;4090
a5d3ad1eea9677390c2800823f87c21b53d071abcdf0590e9e23048077ffeb3a;8 N Industrial Park Road;Não informado;Não informado;Não informado;10021996;3;Northeast;Milton;US;PA;17847
600ae0aabf744af21c8eb9e4d9f8d59c3c7f6bcce8dbd5017f428871bf35ef78;13101 SE 84th ave;Suite B;Não informado;Não informado;10021412;1;Western;Clackamas;US;OR;97015-9733
8c6441cdb4c92af331fe9edb12b789ed73be30a1986d997b31da5db05a644032;640 N Eldorado Street;Não informado;Não informado;Não informado;10023513;1;Western;Stockton;US;CA;95205
02fc39d778333ae86e853cbc0a99a6846715e74f0d325736c42b0202495e2547;14296 South Pony Express Road;Não informado;Não informado;Não informado;10021222;1;Western;Buffdale;US;UT;84065
512781e18895edc5bb195a4b5ec55704fd0348138c7b46e549f1c888715952b9;3213 Orange Grove Avenue;Não informado;Não informado;Não informado;10000466;1;Western;North Highlands;US;CA;95660
755cc366cd89bf6d7dddd26df99cc3bdf5011da0511dfc4e28542bf8e61b0c3d;PO Box 99;Não informado;Não informado;Não informado;10008593;4;Central;Highland;US;IL;62249
b5551544a51041ca1b9f0dd71b7265da593fdd8a4e9c9391b3278d5235eaa330;915 West 42nd;Não informado;Não informado;Não informado;10023471;2;Southern;Odessa;US;TX;79764
422a33d8dfcaeb54f74f811d7dbb3eea10635ad8e3b5fce7eac08406b89ccefd;PO Box 36409;Não informado;Não informado;Não informado;10013188;2;Southern;Charlotte;US;NC;28236
1280f44b3f4be18dd3dcfa39b8c39502b318ed41c594febf43105af210f6c6b6;PO Box 80;Não informado;Não informado;Não informado;10020445;4;Central;Rapid City;US;SD;57709
19160089a29c71eb96c28e14108524abc96717dac2185eeb05c493e320d76a3a;2445 FM 2920;Não informado;Não informado;Não informado;10019617;2;Southern;Spring;US;TX;77388
32f8e5b5045723a6abf60a9bdc65e31e7917a9aba4dd8612e4407cd8b6870152;50 Mystic Avenue;Não informado;Não informado;Não informado;10002240;3;Northeast;Medford;US;MA;2155
6e7aa30400f880d9ae6dbb5acbd8a8dcb0fc02e46c8a31da4cfaa51bdcc1340a;One Cabela Drive;Attention: Accounts Payable;Não informado;Não informado;10020927;4;Central;Sidney;US;NE;69160
d64fa1aef7a3e6c9aa2d9a98c862626ce7736171717a94c2373f197a7f26d4d3;New York PDC #20;Attention  Accounts Payable;PO Box 6750;Não informado;10019880;3;Northeast;Somerset;US;NJ;08873-6750
1c8fee4f9e0b6b778fe59e2cc2113909cefc28516c7a0ca4a44bd53364ea59fe;PO Box 958;Não informado;Não informado;Não informado;10022434;1;Western;Placentia;US;CA;92670
29ecdfc3c19208b3e580f8a88e44c175de6002cffbccea8db0b590f35be8475c;2400 R E O Drive;Não informado;Não informado;Não informado;10018867;4;Central;Flint;US;MI;48507
588aa62318c051340114e84af40781f3456f5c8b33aab2b37e6c730f4ebc77d3;3650 Bay Street;Não informado;Não informado;Não informado;10025515;2;Southern;Jackson;US;MS;39213
99ca69b3bb555823f9b61e4937ff478de0ab91f9e08b63e320c297cbac88a638;231 Yangjae Dong;Não informado;Não informado;Não informado;10010923;5;International;Seocho-GU;AU;Não informado;137-938
8b7677096b78d42723141cab7230b1f46e59c6960b70458ba8d3d5f30bb7e6e3;General Pardinas 112 Bis;Não informado;Não informado;Não informado;10027370;5;International;Madrid;UK;Não informado;28006
bdca54399cfcf082af9be11dfb064c620930c4c9efadbd37b835ab9fd405e9c7;Attention  Accounts Payable Department;PO Box 12990;Não informado;Não informado;10022490;4;Central;Overland Park;US;KS;66282-2990
5323e7f4ead6f8a58077d51e4f06897c846ffe866dd10a3579f528fb69a5d610;9475 192 Street;Não informado;Não informado;Não informado;10021472;0;Canada;Surrey;CA;BC;V3T 4W2
382182a50013daa31d74e16d335dc0fa998f580a9d302f0ca64ef359049956f9;Não informado;Não informado;Não informado;Não informado;10009669;5;International;Não informado;UK;Não informado;Não informado
5fc8488f9ad184f3b715bcff78ef52808c1ac45e88298b0a7ffc4f964af6431d;Attention: Ann Borden;PO Box 31435;Não informado;Não informado;10014804;2;Southern;Shreveport;US;LA;71130
79aba04703bfb1a094bfd97a759fb21210b2121c04fc0af84aad23fa7ab0c430;12 Lexington Street;Não informado;Não informado;Não informado;10009657;3;Northeast;Lewiston;US;ME;4240
ba09bb8e5405a08489434ae898d2079f7ddbdfc8ca9f1758c0abc8384c3578d0;2649 East Mulberry Street;Não informado;Não informado;Não informado;10020393;1;Western;Fort Collins;US;CO;80524
4d5e4710d2b13cfddf36ef017ee9cac258588fcc2f71d48667a0d0fc472c4338;60 Depot Street;Não informado;Não informado;Não informado;10016303;3;Northeast;Buffalo;US;NY;14206
a2a1af796e1dedbe5242ded9376498a5ca219953b8d1b37afdc6f993ca771c03;910 North East 4th Street;Não informado;Não informado;Não informado;10027356;4;Central;Grand Rapids;US;MN;55744
fe01a86869528d1c87fa5acb89fdfe435b560f1142b8ac0840516e7a6dc2891b;1200 North Ellis Street;Não informado;Não informado;Não informado;10002746;4;Central;Bensonville;US;IL;60106-1119
0664554694a5b4640193b6414698cd08442c161c927a32f4302228af7e501e22;PO Box 640;Não informado;Não informado;Não informado;10025575;0;Canada;Beamsville;CA;ON;L0R 1B0
0962d32254932d930f64b4c65ed5bafd4a6c11ae1e0fb2023a11860db2c30b17;316 Millar Avenue;Não informado;Não informado;Não informado;10021179;1;Western;El Cajon;US;CA;92020
52563975d278f404b52c4516efb8e48e2ef7ebdbfb3c6080aca46f99cd3dfb96;DBA Pronto Jobbers Warehouse;PO Box 409;Não informado;Não informado;10007120;1;Western;Rexburg;US;ID;83440
8843de807ee682d40776bddfed0192eee8fd19ef3586fbebb5dbb6c19486fccb;PO Box 21;Não informado;Não informado;Não informado;10025549;3;Northeast;Shady Grove;US;PA;17256-0021
7987e6e0a5d4d8cc9dff006ee34bc20689ad3619dcabd1187f46e3a7ed59b952;Worldwide Purchasing;1996 Technology Drive;Mail Code 483-619-114;Não informado;10012226;4;Central;Troy;US;MI;48083
d73744d6a695d2f41c9c3a95e56980ac5060b6876077fbec1e9108eebeb36ef5;DBA Badlands Off Road Park;3968 North Xavier Road;Não informado;Não informado;10009156;4;Central;Attica;US;IN;47918
002e0985d5f07565db9cc84e45a289b5a3e60391031b42486dcaa3f41ad80bec;877 1st Avenue NW;Não informado;Não informado;Não informado;10010935;4;Central;Sioux Center;US;IA;51250
27333d6bd8a1b9b562a6a9fc181021bda2396f9bc0ce8267cc26b5f50b6bc14f;Attention: Charlene Hoyer;500 North Morton Avenue;PO Box 474;Não informado;10027583;4;Central;Morton;US;IL;61550-0474
c00d66a71939f2f383234794bd59163299a155ebf0130d1e27418a2684ec9993;6501 Adamo Drive;Não informado;Não informado;Não informado;10027348;2;Southern;Tampa;US;FL;33619
9e64387b7a7efce1e491aaa164d8c0c2516da6c14587cbb8caf986da38209681;Attention: Doris Nielson;PO Box 26005;Não informado;Não informado;10002506;1;Western;Salt Lake City;US;UT;84126
1083b82dd91b20b6d3f983fd38a6fc721ebfee54fed165c9e2f4ac3367771f27;PO Box 5418;Não informado;Não informado;Não informado;10021175;2;Southern;Johnson City;US;TN;37602-5418
eb4c2794ab6a7c01297110e2469c1fd1e9409e5763fa64e4718d36278bb772d8;2280 South State Street;Não informado;Não informado;Não informado;10026861;1;Western;Salt Lake City;US;UT;84115
9e870270fc96b534f234bbb7f8713618ba10218a404106330aa601a98f2dae38;5325 Still Creek Road;Não informado;Não informado;Não informado;10022687;0;Canada;Burnaby;CA;BC;V2X 3K6
5dafa26a59d67c1593e0e5209f1851441a7b79b5c218d4370718a7c58df4770e;Não informado;Não informado;Não informado;Não informado;10011732;5;International;Não informado;UK;Não informado;Não informado
03e83ecc6e5a18c43e95597371fbd7347fadb223d88c34911a40d243071a8696;1601 East 29th Street;Não informado;Não informado;Não informado;10015275;4;Central;Marshfield;US;WI;54449
9a1782fdc5fec9b64ee293b4dd3d40a765b8c2352402cdaf2bdfab9d5f625334;Michigan Truck Plant;38303 Michigan Avenue;Não informado;Não informado;10021223;4;Central;Wayne;US;MI;48184
92dc330b05afce5b6893a97d8870483a9d775ed1efbff9b81bfc832d7c541c3b;PO Box 1006;Não informado;Não informado;Não informado;10023524;2;Southern;Clemson;US;SC;29633
6786ea148e1c4ed80fa42fa5cfaa809e4f4fc5b113f6a3808f34d39ea751847a;610 Garfield Avenue;Não informado;Não informado;Não informado;10009662;3;Northeast;West Point;US;PA;19486
e25aeda8e2cd6ec7fa8aa57b00fc8e5abdd9934f9ced8875b675556638dec89c;Corporation USA;Nissan Drive;Não informado;Não informado;10020184;2;Southern;Smyrna;US;TN;37167
13eb89d02efc43e3eb35ec46c857f4436dc5789e228c97ba31c7ad1b757d48d8;PO Box 86222;City Deep 2049;Não informado;Não informado;10022755;5;International;Johannesburg;AU;Não informado;Não informado
33ad6433790a528078459f3068d21b9bc1f81c54c5adef89529e836398bacbc9;7779 Dixie Highway;Não informado;Não informado;Não informado;10021936;2;Southern;Louisville;US;KY;40258
3a84235345908aca0a2db661afd6496488a6a686aa2392680b69a7dde86daada;PO Box 450;Não informado;Não informado;Não informado;10009656;1;Western;Trinity Center;US;CA;96091
4ba34a5cdaa38b91f4431e3806c2413ea84cb8645b9e7a5e207a42ba462eb8ee;1801 NW 82nd Ave;Não informado;Não informado;Não informado;10006805;2;Southern;Miami;US;FL;33126
0f88075cd8e732001b6ec4ef0bfaccdcd1c068f6d23dcc2f3884cedc512e48cc;666  South Thompson Road;Não informado;Não informado;Não informado;10025296;4;Central;Sun Prairie;US;WI;53590-2553
7bf5344bb433570af91b858bf40d83370ab94dbfefa628ef082057641ef60508;3251 East Imperial Highway;Distributor #1111190;Não informado;Não informado;10021422;1;Western;Brea;US;CA;92621
ace7339866010edb95627e52b42c48f4e8c4799650f9cb47f28f66ddb646e2e0;PO Box 588;Não informado;Não informado;Não informado;10010897;2;Southern;Whitehouse;US;TN;37188
cbf4ccb3d0ffc8503a10da2ad4f372f7c6ea89526051e2812adc58480ac81ecd;Dallas PDC #15;Attention  Accounts Payable;PO Box 167728;Não informado;10013252;2;Southern;Irving;US;TX;75016-7728
c2a2a6d1cbc9b337a33d9da5accb8c5301ab0916bfdbed2308058db06348b34d;6710 76 Avenue;Não informado;Não informado;Não informado;10019410;0;Canada;Edmonton;CA;AB;T6B 0A8
2854a812741eff72380fe6e5dbe28659345dd4a28725e6641023865de4bcef65;PO Box 2640;Não informado;Não informado;Não informado;10011981;1;Western;Missoula;US;MT;59806
b5c6d3a3100537d8525e9af0c57c5bd8e4ecc8256319c10e7ba48d26915d4d0e;PO Box 19858 Station N;Não informado;Não informado;Não informado;10011734;2;Southern;Atlanta;US;GA;30325-0858
eae974070fb64a026bd3df20b43e2768fa6204f9c13ff127e1f9db70f02ffef0;207 North Scott;Não informado;Não informado;Não informado;10013509;4;Central;Joliet;US;IL;60435
9b1815d11d7f56d8aeb3e05d572592a48e2b6357680da77803dab1b8da31345b;201 Old Boiling Springs Road;Não informado;Não informado;Não informado;10022249;2;Southern;Shelby;US;NC;28152
79e4867ef80460755694ea1bad046934e75fcf4b369cfa3dfd2f127c039192b6;Bromley St Lye Stourbridge;Não informado;Não informado;Não informado;10025022;5;International;West Midlands;UK;Não informado;DY9 8HS
4660038d637561322d6456fb5dbff6fb8c6f575251ee2c13fce7a1c390ba869c;PO Box 547;Não informado;Não informado;Não informado;10020914;2;Southern;Calhoun;US;LA;71225-0547
5773c17cde00a5a74833bde2798afad85d06e897f298b82e0beaa881729760b5;907 Cole Street;Não informado;Não informado;Não informado;10024743;1;Western;Enumclaw;US;WA;98022
ee93262a4168c3ad8b582a2eb59e30517d9d4c96d2898ab7f3d59c0a78531860;PO Box 582510;Não informado;Não informado;Não informado;10024009;2;Southern;Tulsa;US;OK;74158-2510
67f6c7dd4402e70ecd3f10dc55a07066896661b4e946b8af5d06b91d1fa3bbaf;3290 Monier Circle #100;Não informado;Não informado;Não informado;10000473;1;Western;Rancho Cordova;US;CA;95742
ee3247a35319e8bdd0dad32772dfd94a1e8f258c596b93890994ce9a6594201b;731 North Beford Road;Não informado;Não informado;Não informado;10025062;3;Northeast;Bedford Hills;US;NY;10507
e624bbe51ab5e594cc128a454b40de54d1e013749645b883f4d7a284667d23db;508 South First Street;Não informado;Não informado;Não informado;10008893;1;Western;Yakama;US;WA;98901
4c982f5b8565e3704002802e2e231bb4da89ca4c6875d787776437decbd2df33;400 Jay Street;Não informado;Não informado;Não informado;10023003;4;Central;Coldwater;US;MI;49036
6c7b1b87e8ddf0ece5d38d64edc6d3482832691a9b800193ba74bf45c5a77b34;Field Accounting Department;PO Box 2003;Não informado;Não informado;10018871;4;Central;Livonia;US;MI;48151
d660485fcf6b7214cf8c87582da0ecdb766038e6226e9c2d54947e43de70f308;PO Box 578;Não informado;Não informado;Não informado;10008596;2;Southern;Springhill;US;LA;71075
d74e36e294105c2d77ae5aeaa004a6f1f7c5639b202dd326ea994985ff2ca7c5;8F No.19 Chang Chun Road;Não informado;Não informado;Não informado;10007117;5;International;Taipei;AU;Não informado;104
190e35f661017c734e2657bce5a34fe4adbdd4561b25c1498c620cd4a4f61b9b;Não informado;Não informado;Não informado;Não informado;10025304;5;International;Não informado;UK;Não informado;Não informado
4345f92817dbbf170d84e4c2784a8d80542c1e3e0260eb0b6d0eb7f71671fdcd;44 Tunkhannock Avenue;Não informado;Não informado;Não informado;10012715;3;Northeast;Exeter;US;PA;18643
ea00bae543f3852bfc972fdc84dbf76a6b7477b83f01efa41b6024e49cb6e59b;540 South Rock Boulevard;Não informado;Não informado;Não informado;10020663;1;Western;Sparks;US;NV;89431
4781c000769b3f7cca008cbbbb38c5dd723bdbe3a996ff2be6de7d04e579a20a;Attention  Accounts Payable Department;PO Box 12990;Não informado;Não informado;10025269;4;Central;Overland Park;US;KS;66282-2990
4c5fa45c65256eecbe72f08c120ecea4791a5beca1724d3b19970ab2d62555d5;Central Accounting Service;PO Box 6005;Não informado;Não informado;10026560;4;Central;Dearborn;US;MI;48121
c38f7588b65282e19ba791979d6f202446e902339c0d9791e6d9722ad299f53f;815 Circle Drive East;Não informado;Não informado;Não informado;10025023;0;Canada;Saskatoon;CA;SK;S7K 3S4
f710239271edf8470917246a190e8e13c80c22898d94b0513c2c8711ecf39471;PO Box 2338;Não informado;Não informado;Não informado;10016564;4;Central;Traverse City;US;MI;49685
c90dc172de386004cbf40e135a411a1a7b6c29deb2e93d32f7334759c1cce33a;PO Box 194255;Não informado;Não informado;Não informado;10007123;2;Southern;Little Rock;US;AR;72219
5a57126617132c10dd4cd462578fcd4d5380b1807f5b0bb368719bcb94987a44;Division of Parkhurst;15051 E Admiral Place;Não informado;Não informado;10014739;2;Southern;Tulsa;US;OK;74116
7f28ecee18b2a26b0eb382a7a5d5dbb61f5691c9f8a6e0c09d7504364ad08344;10023 128th St. E #7;Não informado;Não informado;Não informado;10008381;1;Western;Puyallup;US;WA;98373
24d3d0663aab1d6b6a784591e8f4616201386fbb43203829af492fe54d0aed76;2177 Dale Avenue SE;Não informado;Não informado;Não informado;10011997;3;Northeast;Roanoke;US;VA;24013
4f653aa997199a650f95a20e03dfd49ddd05254df1764f627d74b041ae00b10d;PO Box 113;Não informado;Não informado;Não informado;10022168;4;Central;Cass City;US;MI;48726
c6ad615aef436de928dca8484d3d9037bfc77001e25275984ffaa023861cd3f6;580 Yankee Doodle Rd Ste 1200;Não informado;Não informado;Não informado;10017036;4;Central;Eagan;US;MN;55121
b39e129782d1221171709e08f049130f7f949e8b865bb6eea53e1d24f2d7fc06;PO Box 100603;Não informado;Não informado;Não informado;10025495;2;Southern;Birmingham;US;AL;35210
25bbb4b384aea8bb4d6dc40d07d878bd005d229c4c3f6261b61a0526d9460c0d;Avda 10 De Mayo S/N;Não informado;Não informado;Não informado;10020715;5;International;Linares (Jaen);UK;Não informado;23700
75d54b8f6759e3a12db6b3acb6d1f61e42564c2b8b2d19a95606d8ec55e06474;Attention  Accounts Payable Department;PO Box 12990;Não informado;Não informado;10018644;4;Central;Overland Park;US;KS;66282-2990
5aaeb23de0732f77d3e1b80cb16c82feda94e13e441d92034ccd60dbc273ec78;11811 West Silver Spring Drive;Não informado;Não informado;Não informado;10017585;4;Central;Milwaukie;US;WI;53225
106ea0bb694f7e3ee8a8c67b356867b17d6b62f3b32e0bb5a0466f6e891a7556;7640 North Telegraph;Não informado;Não informado;Não informado;10017054;4;Central;Newport;US;MI;O
22d8febcb1467f478ea346a6684060a80cc9b950da4aa41c033880eab3c87b1b;7940 New Jersey Avenue;Não informado;Não informado;Não informado;10019665;4;Central;Hammond;US;IN;46323
964278777d0f36180ae51a1898093f4b74a14110b1a1a70203beab327f22f6a5;One Industrial Complex;Não informado;Não informado;Não informado;10025583;3;Northeast;Nesquehoning;US;PA;18240
ebadce6cbcd311e9a520c23d59440f0944cda0f070cbf279349e4b0d6e223d97;Defense Const. Supply Center;PO Box 16791;Não informado;Não informado;10023785;4;Central;Columbus;US;OH;43216
32da0cd716881e062cc70750226a927bfb2202f8011c9fd9792311dda0da4674;580 Waterman Avenue;Não informado;Não informado;Não informado;10024246;3;Northeast;East Providence;US;RI;2914
f626f99dcbfebb305320e19aff0ec076994f004899aecf1bbdc52b54713fa15d;Customer Address 1;Customer Address 2;Customer Address 3;Customer Address 4;Address Number;Region Code;Region Name;City;Country;State;Zip Code
5120c92a1c590a95dfd0415c330f99eb2ff272782ff1062ca8f0df37d80d3c83;PO Box 660;Não informado;Não informado;Não informado;10017553;4;Central;Ottawa;US;KS;66067-3805
f00ebd56419fbf4b4d78a7f71c3486ebac1c113a64e992afc97dbb4949b6f25b;Não informado;Não informado;Não informado;Não informado;10000453;5;International;Não informado;UK;Não informado;Não informado
c5abefeca6c233e83ca64f2eff9e36da9600cd03118208c2ca28fb1c2cd1fcbe;c/o Rampar International Trade Corp.;6260 Place Northcrest Suite 305;Não informado;Não informado;10025032;0;Canada;Montreal;CA;QU;H3S 2T4
cb77567ce6584e84cc4cf51587b49387af39bdfe41feb8eb790d91a0484cb4d4;1760 C Airport Road;Não informado;Não informado;Não informado;10022183;1;Western;Breckenridge;US;CO;80424
1b170b3277c59926084b9723671b955d659dc38883f3ff46e7a09fcfc5ac7024;5702 Industry Lane Unit B1 & 2;Não informado;Não informado;Não informado;10010906;3;Northeast;Frederick;US;MD;21704
1d7ef9988a7a6137e34d0f1a3bc0e02042366d667a78ae4f024e472d8fc8ee82;PO Box 7100;Não informado;Não informado;Não informado;10009885;0;Canada;Winnipeg;CA;MB;R3C 3B3
88549a5ec55caa1edf18b8320034d9f1a29c83f6b126e74dacc79ac7ddd41303;22015 South I-35;Não informado;Não informado;Não informado;10007122;2;Southern;Buda;US;TX;78610
1ac3011591061f2a33825c53235e92bf264b0da12c387006235d5384d7d7ac26;PO Box 5308;Não informado;Não informado;Não informado;10025243;2;Southern;Longview;US;TX;75608
408ec9f381b023d234ad7952ad232f1a6a1ac83bff3f0a4e9801ffd3307510a4;500 Highway 18 West;Não informado;Não informado;Não informado;10026532;4;Central;Garner;US;IA;50438
2a576542d7f3962e8c39f30256d049ede405da2c1bdcae10a2fe2a813e3abf91;522 Montana Avenue;Não informado;Não informado;Não informado;10010886;1;Western;Libby;US;MT;59923
86a1e95c5f24750171f0b8f6458957e82e97e6f01794af66e91f2fa65b2b8c4a;1127 South First Street NE;Não informado;Não informado;Não informado;10021145;2;Southern;Brookhaven;US;MS;39601
b214a7fbb8f978d9995c42a3fad536977fd982630117eedfa9a8cdc289b2167a;8151 Wagner Road;Não informado;Não informado;Não informado;10000456;0;Canada;Edmonton;CA;AB;T6E 4N6
13fb1aa9439ebf3c0c61ac71746531e06de56a1595a766b07a2dedacc04566cd;Kadaka Road 72 a;Não informado;Não informado;Não informado;10002526;5;International;EE 0026 Tallinn;UK;Não informado;Não informado
cbcf40cae2d1ce981d27844a1983eda7671c4384dcd28043929a40cceeb27ca2;9049 Tyler Blvd.;Não informado;Não informado;Não informado;10025039;4;Central;Mentor;US;OH;44060
bc010bd47c0ae639aa98e56da8ef1bec35ce4744449417ac8f9f9623884fc606;PO Box 065;Não informado;Não informado;Não informado;10009863;5;International;Beijing 100088;UK;Não informado;Não informado
c1a583e1f807356cb5646ac0d954e6a82ca89e44c94d39a329c009601a431adb;1723 Webb Drive;Não informado;Não informado;Não informado;10022725;2;Southern;Norcross;US;GA;30093
4ddec839e23d4ceb2817efffcdbeca373ab3d1ae796df3c3dd6166511af6942b;3248 Auburn Boulevard;Não informado;Não informado;Não informado;10020192;1;Western;Sacramento;US;CA;95821
0c1352e89e6a16b92de4291502a6becded5c3be1ce8af1cdb8de5f18ea00f074;Attention: Accounts Payable;PO Box 21502;Não informado;Não informado;10009672;1;Western;Phoenix;US;AZ;85036
0a5314672e5478c8dd871b15306df5d9a330e0691f39741d543ff465fdb9eff6;3248 Auburn Boulevard;Não informado;Não informado;Não informado;10019678;1;Western;Sacramento;US;CA;95821
c21179faead15eae06a859016ca0b3e7d60a85d3587fc4e13c72825d01c5677b;2192 Viking Drive;Não informado;Não informado;Não informado;10015030;1;Western;Anchorage;US;AK;99501
c444b349d858a58ddc756af1d3be5cdfa16045e947b126c49e23d71f77dc2b20;RU-3 Hamamatsu Nishi;PO Box 1;Não informado;Não informado;10025241;5;International;Hamamatsu City;AU;Não informado;432-8611
0ca0399773e6d6d025986cb75e6fa4672647fc74a395f31c5da0ec882e9067f1;Attention: Paul Grady;105 Montauk Highway;Não informado;Não informado;10025300;3;Northeast;West Sayville;US;NY;11796
c66d023b3c2c342eecff3439f7ed317a7378f3270edcb33f9b8a3f8979677bd4;Division Of Pontiac Michigan;17575 PP-CPDC;1251 Joslyn Road Dock 4;Não informado;10024255;4;Central;Pontiac;US;MI;48340-2956
f8d605db3f8352151010425873668138301510f3807d8336155904c8e7f4a366;7210 Gateway East;Não informado;Não informado;Não informado;10019897;2;Southern;El Paso;US;TX;79915
f804bb32fef179fe4c482b2ee6ab9f5ef9f6c8f50ec2628c5e4df06a4db617cd;Attention: Accounts Payable;PO Box 21502;Não informado;Não informado;10000480;1;Western;Phoenix;US;AZ;85036-1502
ad3a7c2e2f71d48375109acdf54385d42e45e182226236763b0315204f7540d1;2400 Highway 19N;Não informado;Não informado;Não informado;10009679;2;Southern;Meridian;US;MS;39307
649396831ee070efb54edee265b6f2e2a6d46e97bea156c84107775a13eaa24c;5415 Lamco Drive;Não informado;Não informado;Não informado;10020684;2;Southern;Montgomery;US;AL;36117
df8a638705840c5a299855cad20d864224985704373c9e15eab2a024bf9cc620;PO Box 5364;Não informado;Não informado;Não informado;10006093;4;Central;Evansville;US;IN;47716-5364
d7ef23b88ef45ca5ad91f947d0775c49dc596b3986d8e7fa9f687b1af6c1d058;10401 Boul Parkway;Não informado;Não informado;Não informado;10017307;0;Canada;Anjou;CA;QU;H1V 1R4
bc7dc01617d3e88d8e7538400552a6e751ab5fe5a77fd8ebbe69497961c7d32f;4345 South West Boulevard;Não informado;Não informado;Não informado;10025302;2;Southern;Tulsa;US;OK;74107
4cb8d09b58a833c833b7585607fab449a4e9dbf2704a5c4c0cd9f36c1ea166e4;7600 South Santa Fe;Não informado;Não informado;Não informado;10023235;2;Southern;Houston;US;TX;77061
4ac45ed4df02921e1ce7281ea9215dc24058557456ca623bcef463e7ffc82c24;PO Box 511;Não informado;Não informado;Não informado;10024524;4;Central;New Hampton;US;IA;50659
dde8ea9850dfe436d2a20e003ff1cead8d0401e7301c3fd5a288dfdd18d389e6;Brobekkveien 105;Não informado;Não informado;Não informado;10020672;5;International;N-0598 Oslo;IR;Não informado;Não informado
